[{"OBJECT_NAME":"OBJECT AL","OBJECT_ID":"2023-085AL","EPOCH":"2026-03-09T22:26:04.970400","MEAN_MOTION":15.31857284,"ECCENTRICITY":0.000802,"INCLINATION":97.4839,"RA_OF_ASC_NODE":180.0127,"ARG_OF_PERICENTER":78.7242,"MEAN_ANOMALY":281.49,"EPHEMERIS_TYPE":0,"CLASSIFICATION_TYPE":"U","NORAD_CAT_ID":57038,"ELEMENT_SET_NO":999,"REV_AT_EPOCH":15154,"BSTAR":0.0006591637,"MEAN_MOTION_DOT":0.00020246,"MEAN_MOTION_DDOT":0},{"OBJECT_NAME":"STARLINK-32044","OBJECT_ID":"2024-117B","EPOCH":"2026-03-09T21:43:07.324032","MEAN_MOTION":15.30182552,"ECCENTRICITY":0.00013145,"INCLINATION":53.161,"RA_OF_ASC_NODE":35.8222,"ARG_OF_PERICENTER":92.3594,"MEAN_ANOMALY":267.7557,"EPHEMERIS_TYPE":0,"CLASSIFICATION_TYPE":"U","NORAD_CAT_ID":60092,"ELEMENT_SET_NO":999,"REV_AT_EPOCH":9692,"BSTAR":5.3005892e-5,"MEAN_MOTION_DOT":1.21e-5,"MEAN_MOTION_DDOT":0}]
